              M50 Cartesian                         J2K Cartesian  
    -----------------------------------       --------------------------------
     X    =        3652844.31                 X    =         1035542.62
     Y    =       16580958.43  feet           Y    =         5065891.55  meter
     Z    =       14350862.79                 Z    =         4379362.45
     XDOT =     -18104.187787                 XDOT =       -5547.655239
     YDOT =      13568.097387  feet/sec       YDOT =        4073.683418  meter/sec
     ZDOT =     -11033.304182                 ZDOT =       -3389.828838
 
              TDR Cartesian                         TDR Cartesian  
    -----------------------------------       --------------------------------
     X    =       12827976.34                 X    =         3909967.19
     Y    =       11094659.39  feet           Y    =         3381652.18  meter
     Z    =       14372552.76                 Z    =         4380754.08
     XDOT =      -5417.904626                 XDOT =       -1651.377330
     YDOT =      20754.964458  feet/sec       YDOT =        6326.113167  meter/sec
     ZDOT =     -11150.814110                 ZDOT =       -3398.768141
  
  
    The mean element set is posted at the UTC for which position is
    just north of the next ascending node relative to the above
    vector time
 
 
    TWO LINE MEAN ELEMENT SET
  
    ISS
    1 25544U 98067A   16120.54210225  .00016717  00000-0  10270-3 0  9143
    2 25544  51.6402 300.6791 0001529  61.9632 298.1676 15.54432171 37417
  
  
    Satellite: ISS
    Catalog Number: 25544
    Epoch time:      16120.54210225   =   yrday.fracday
    Element set:     914
    Inclination:       51.6402  deg
    RA of node:       300.6791  deg
    Eccentricity:     .0001529     
    Arg of perigee:    61.9632  deg
    Mean anomaly:     298.1676  deg
    Mean motion:   15.54432171  rev/day
    Decay rate:    1.67170E-04  rev/day^2
    Epoch rev:            3741
    Checksum:              284
 
             </PRE>
           </TD>
        </TR>
    </TABLE>
    
    <table align="center" border="0" width="600" cellpadding="0" cellspacing="0">
      <tr>
        <td align="center" valign="top"><hr size="1" width="600" noshade="noshade" />
        <font face="Arial,helvetica" size="-2">Curator: <a href="/cgi-bin/comment.cgi?jsc-hsfwebma@mail.nasa.gov">Kim 
          Dismukes</a> | Responsible NASA Official: <a href="/cgi-bin/comment.cgi?jsc-hsfwebma@mail.nasa.gov">Amiko Kauderer</a> | Updated: 06/08/2009<br />
        <a href="http://www.nasa.gov/about/highlights/HP_Privacy.html">Privacy Policy and Important Notices</a></font></td>
      </tr>
    </table>
    </body>
    </html>
